Satellite: GOLIAT
Catalog number: 38085
Epoch time:      12131.13915793
Element set:     203
Inclination:      069.4992 deg
RA of node:       042.6468 deg
Eccentricity:    0.0756665
Arg of perigee:   295.8165 deg
Mean anomaly:     056.7094 deg
Mean motion:   14.12032533 rev/day
Decay rate:     2.9736e-04 rev/day^2
Epoch rev:            1220
Checksum:              309

/EX



From ray.hoad at mypbmail.com  Thu May 10 19:11:09 2012
From: ray.hoad at mypbmail.com (Ray Hoad)
Date: Thu, 10 May 2012 21:11:09 -0500
Subject: [keps] orb12131.2l.amsat
Message-ID: <F3DD245152DF4B9B8C9669D86DBF3B6C@ray45af0265077>

SB KEPS @ AMSAT  $ORB12131.N
2Line Orbital Elements 12131.AMSAT

HR AMSAT ORBITAL ELEMENTS FOR AMATEUR SATELLITES IN NASA FORMAT
FROM WA5QGD FORT WORTH,TX May 10, 2012
Send SUBSCRIBE KEPS/UNSUBSCRIBE KEPS to majordomo at amsat.org only
BID: ORB12131.N

DECODE 2-LINE ELSETS WITH THE FOLLOWING KEY:
1 AAAAAU 00  0  0 BBBBB.BBBBBBBB  .CCCCCCCC  00000-0  00000-0 0  DDDZ
2 AAAAA EEE.EEEE FFF.FFFF GGGGGGG HHH.HHHH III.IIII JJ.JJJJJJJJKKKKKZ
KEY: A-CATALOGNUM B-EPOCHTIME C-DECAY D-ELSETNUM E-INCLINATION F-RAAN
G-ECCENTRICITY H-ARGPERIGEE I-MNANOM J-MNMOTION K-ORBITNUM Z-CHECKSUM

TO ALL RADIO AMATEURS BT

AO-07
1 07530U 74089B   12130.51946505 -.00000027  00000-0  10000-3 0 03780
2 07530 101.4003 129.2234 0011992 359.6104 000.4961 12.53589205715204
FO-29
1 24278U 96046B   12130.80587858 -.00000041  00000-0 -84131-5 0 08420
2 24278 098.5832 236.4872 0351033 128.6072 234.7054 13.52982159776766
SO-33
1 25509U 98061B   12130.55954818  .00000496  00000-0  83992-4 0 02309
2 25509 031.4331 192.2909 0352940 225.3348 131.7994 14.28725504707129
RS-22
1 27939U 03042A   12131.74863048  .00000465  00000-0  97090-4 0  3423
2 27939 097.8148 334.4814 0013935 028.4165 331.7796 14.63999574460400
VO-52
1 28650U 05017B   12130.59400050  .00001250  00000-0  15957-3 0   971
2 28650 097.5996 163.4327 0026728 165.1933 195.0074 14.82880770379254
HO-68
1 36122U 09072B   12131.21175680 -.00000044  00000-0  00000 0 0  4487
2 36122 100.3641 191.3188 0007348 193.7359 166.3569 13.16295094115396
UO-11
1 14781U 84021B   12130.93331720  .00000551  00000-0  78966-4 0 08733
2 14781 097.9559 190.7822 0009387 150.7399 209.4343 14.80414107514271
AO-16
1 20439U 90005D   12130.86854826  .00000080  00000-0  45565-4 0 04729
2 20439 098.4277 075.3216 0010054 275.0691 084.9343 14.32046164164510
LO-19
1 20442U 90005G   12130.89736715  .00000083  00000-0  46487-4 0 03896
2 20442 098.3932 078.4891 0010975 264.6321 095.3603 14.32264934164703
AO-27
1 22825U 93061C   12130.88788801  .00000089  00000-0  51752-4 0 01008
2 22825 098.5726 074.3043 0008942 037.3457 322.8341 14.29453918971007
IO-26
1 22826U 93061D   12130.89609414  .00000087  00000-0  50898-4 0  8489
2 22826 098.5668 074.6926 0009497 031.2282 328.9462 14.29727323971130
GO-32
1 25397U 98043D   12130.59169200 -.00000158  00000-0 -51573-4 0  7707
2 25397 098.3589 111.2072 0001973 060.9554 299.1811 14.23271334718538
NO-44
1 26931U 01043C   12130.70803345 -.00000046  00000-0  14493-4 0   353
2 26931 067.0530 219.5119 0007365 270.4438 089.5817 14.29790386553742
SO-50
1 27607U 02058C   12130.79446350  .00000451  00000-0  88964-4 0  7562
2 27607 064.5586 051.6858 0084215 255.9816 103.1923 14.72347326504318
CO-55
1 27844U 03031E   12130.54733231  .00000227  00000-0  12506-3 0 03719
2 27844 098.7028 139.4878 0009835 340.2684 019.8117 14.21008576459406
CO-57
1 27848U 03031J   12130.68509383  .00000209  00000-0  11709-3 0 03227
2 27848 098.7118 138.9406 0009821 346.1491 013.9410 14.20762201459364
AO-51
1 28375U 04025K   12130.47187804  .00000181  00000-0  66893-4 0 02621
2 28375 098.1441 097.5575 0083309 157.5828 202.9032 14.40936248413198
CP3
1 31129U 07012N   12130.93311409  .00000634  00000-0  15439-3 0 01634
2 31129 097.8806 140.9602 0099977 241.8810 117.2315 14.53028779268421
CO-65
1 32785U 08021C   12130.71652676  .00000671  00000-0  89177-4 0  3032
2 32785 097.8023 192.6741 0014333 183.4496 176.6585 14.82891114218069
PRISM
1 33493U 09002B   12130.88999736  .00002242  00000-0  27718-3 0 06804
2 33493 098.1656 270.5585 0020032 063.6191 296.7075 14.83701692178074
SOHLA-1
1 33496U 09002E   12130.91742107  .00000254  00000-0  50695-4 0 07273
2 33496 098.1008 242.9144 0006764 154.3331 205.8210 14.69942760176620
SO-67
1 35870U 09049F   12130.96367138  .00003488  00000-0  14904-3 0 09393
2 35870 097.2353 168.0565 0001470 004.9015 113.3043 15.23500480146796
TISAT-1
1 36799U 10035E   12131.86605452  .00001405  00000-0  18457-3 0  9603
2 36799 098.0640 207.9283 0013631 296.7018 063.2792 14.81825104 98966
STUDSAT
1 36801U 10035G   12131.85589347  .00003776  00000-0  46033-3 0  3934
2 36801 098.0693 208.4714 0011606 281.1926 078.7984 14.83940625 98983
FO-69
1 37227U 0        12130.23193273  .00000490  00000-0  77187-4 0 01773
2 37227 071.9713 037.9182 0015878 028.7502 331.4538 14.77037489030341
FO-70
1 37380U 0        12130.23095138  .00000459  00000-0  73241-4 0 01800
2 37380 071.9738 038.4300 0016715 025.5646 334.6350 14.76790414030239
ALMASAT-1
1 38078U 12006B   12131.84005545  .00016117  00000-0  44726-3 0  1998
2 38078 069.4976 041.7958 0763704 295.3534 057.0503 14.08264611 12298
XATCOBEO
1 38082U 12006F   12131.72470761  .00038018  00000-0  94033-3 0  2290
2 38082 069.4958 041.0664 0747456 294.8762 057.6740 14.13933230 12298
NOAA-10
1 16969U 86073A   12131.52201736  .00000188  00000-0  94194-4 0  9144
2 16969 098.5850 161.2395 0012385 349.6606 010.4327 14.27548618334494
NOAA-11
1 19531U 88089A   12131.31351074 -.00000134  00000-0 -46648-4 0  9154
2 19531 098.7321 217.2663 0011124 336.7626 023.3054 14.14964669219155
NOAA-12
1 21263U 91032A   12131.56553925  .00000089  00000-0  56621-4 0  4027
2 21263 098.7314 153.4044 0013226 313.8131 046.1956 14.25492915 91196
MET-3/5
1 21655U 91056A   12130.78516677  .00000390  00000-0  97956-3 0 00019
2 21655 082.5562 179.3158 0014415 062.7412 297.5177 13.17033116996604
MET-2/21
1 22782U 93055A   12131.84350804  .00000110  00000-0  86575-4 0  4131
2 22782 082.5497 062.1415 0020948 256.7661 103.1175 13.83682928944008
OKEAN-4
1 23317U 94066A   12130.92961413  .00000921  00000-0  10793-3 0 09033
2 23317 082.5403 066.9672 0023076 115.2390 245.1220 14.83735451949138
NOAA-14
1 23455U 94089A   12131.54111163  .00000096  00000-0  73916-4 0  8836
2 23455 098.8274 215.5114 0010336 067.6608 292.5660 14.13895907895474
NOAA-15
1 25338U 98030A   12131.42334297  .00000267  00000-0  13273-3 0  2563
2 25338 098.6883 118.6927 0009974 214.5132 145.5418 14.25065058727477
RESURS
1 25394U 98043A   12130.97452542  .00000019  00000-0  25903-4 0 00974
2 25394 098.3195 121.2284 0001981 023.9259 336.2007 14.24286089718965
FENGYUN1
1 25730U 99025A   12130.95401341  .00001422  00000-0  83702-3 0 06029
2 25730 098.8447 090.6060 0019888 109.7883 250.5433 14.09475637669223
OKEAN-0
1 25860U 99039A   12131.92965371  .00000378  00000-0  64797-4 0  6230
2 25860 097.9325 095.3435 0001616 047.1387 312.9953 14.74179020689089
NOAA-16
1 26536U 00055A   12131.43002104  .00000063  00000-0  58832-4 0  7418
2 26536 099.0968 172.9637 0010434 185.8969 174.2070 14.12734531599700
NOAA-17
1 27453U 02032A   12131.30194845  .00000194  00000-0  10133-3 0  6981
2 27453 098.3381 160.2480 0010629 268.2569 091.7376 14.24428077513362
NOAA-18
1 28654U 05018A   12131.28763295  .00000533  00000-0  31820-3 0  1731
2 28654 099.0429 089.0670 0013441 261.4030 098.5630 14.11647311359219
NOAA-19
1 33591U 09005A   12131.28706019 -.00000018  00000-0  14321-4 0  3658
2 33591 098.8631 071.5507 0014734 125.6489 234.6072 14.11332112167666
HUBBLE
1 20580U 90037B   12131.06287096  .00001472  00000-0  95940-4 0  9973
2 20580 028.4721 033.0195 0002950 012.5953 347.4790 15.02446579  8996
ISS
1 25544U 98067A   12131.90893385  .00009821  00000-0  14500-3 0  5295
2 25544 051.6414 308.8048 0010434 301.3428 221.5500 15.56003892772209
CO-58
1 28895U 05043F   12130.65169613  .00000459  00000-0  10335-3 0  1702
2 28895 097.9189 358.6096 0016455 271.4792 088.4594 14.60594490348035
FALCON
1 30776U 07006E   12130.50998734  .00002710  00000-0  17875-3 0 03544
2 30776 035.4321 153.0359 0002098 019.3615 340.7182 15.07273191284413
MAST
1 31126U 07012K   12131.99653624  .00000284  00000-0  73852-4 0  4533
2 31126 097.8723 145.2735 0092922 226.3118 133.0355 14.54129304268868
CAPE1
1 31130U 07012P   12130.96809648  .00000681  00000-0  16532-3 0 04658
2 31130 097.8811 140.7099 0100517 242.3674 116.7270 14.52900748268220
COMPASS
1 32787U 08021E   12130.70180197  .00001353  00000-0  16922-3 0  2985
2 32787 097.8025 192.8854 0015057 182.7960 177.3140 14.83849207218109
AAUSAT2
1 32788U 08021F   12130.14029375  .00002256  00000-0  27577-3 0 02884
2 32788 097.8041 192.6977 0014772 183.0809 177.0336 14.84159666218042
DO-64
1 32789U 08021G   12130.69723355  .00003071  00000-0  36085-3 0 03076
2 32789 097.8141 195.1199 0014887 179.5103 180.6113 14.85541679218168
CO-66
1 32791U 08021J   12130.81149273  .00001651  00000-0  20770-3 0 02901
2 32791 097.8013 192.7653 0015933 179.9575 180.1626 14.83295861218056
RS-30
1 32953U 08025A   12131.05802784  .00000010  00000-0  00000 0 0  7649
2 32953 082.5011 318.8557 0019433 033.8136 326.4183 12.43023182179822
TACSAT-3
1 35001U 09028A   12121.72616188  .15204951  73582-5  42606-3 0 00016
2 35001 040.4259 351.8840 0007146 275.2650 085.0693 16.45157000166990
PHARMSAT
1 35002U 09028B   12130.90911432  .00084461  00000-0  50322-3 0 08992
2 35002 040.4631 311.1644 0006298 307.5783 052.4464 15.76846217168263
METEOR-M
1 35865U 09049A   12131.21977172  .00000001  00000-0  20118-4 0  3961
2 35865 098.6580 186.2509 0002733 143.9302 216.2061 14.21861424137207
RS-38
1 35869U 09049E   12131.31684998  .00000048  00000-0  41332-4 0  4049
2 35869 098.6536 186.3482 0004871 152.3590 207.7844 14.22068238137231
JUGNU
1 37839U 11058B   12130.65792387  .00000620  00000-0  19019-3 0 01464
2 37839 019.9620 231.6486 0018485 156.6258 203.4975 14.12050603029797
SRMSAT
1 37841U 11058D   12130.66004140  .00000264  00000-0  00000-0 0 01473
2 37841 019.9747 235.7683 0011845 129.3185 230.8312 14.10136386029759
RAX-2
1 37853U 11061D   12130.98765468  .00005047  00000-0  40662-3 0 01758
2 37853 101.7155 153.7882 0248646 099.8776 263.0592 14.79608040028756
AUBIESAT
1 37854U 11061E   12130.95188896  .00005023  00000-0  39726-3 0 01821
2 37854 101.7176 153.9350 0250563 099.6022 263.3583 14.79963988028731
HRBE
1 37855U 11061F   12130.96204719  .00005001  00000-0  39816-3 0 01776
2 37855 101.7199 153.9193 0249937 099.3746 263.5805 14.79835773028734
RS-39
1 38051U 11062C   12130.96910094  .00006491  00000-0  28063-3 0 03190
2 38051 051.6307 341.8813 0010751 260.3847 240.4136 15.23622321016142
E-STAR
1 38079U 12006C   12131.73937219  .00031723  00000-0  77215-3 0  2179
2 38079 069.4995 041.1367 0753534 294.9815 057.5220 14.12989487 12296
GOLIAT
1 38085U 12006J   12131.13915793  .00029736  00000-0  73456-3 0  2032
2 38085 069.4992 042.6468 0756665 295.8165 056.7094 14.12032533 12206
/EX



From ray.hoad at mypbmail.com  Thu May 17 19:52:22 2012
From: ray.hoad at mypbmail.com (Ray Hoad)
Date: Thu, 17 May 2012 21:52:22 -0500
Subject: [keps] orb12138.amsat
Message-ID: <EA0FFFC155DC4164BA7A86A2C6BAA104@ray45af0265077>

SB KEPS @ AMSAT  $ORB12138.O
Orbital Elements  12138.OSCAR

HR AMSAT ORBITAL ELEMENTS FOR OSCAR SATELLITES
FROM WA5QGD FORT WORTH,TX May 17, 2012
Send SUBSCRIBE KEPS/UNSUBSCRIBE KEPS to majordomo at amsat.org only
BID: ORB12138.O
TO ALL RADIO AMATEURS BT

